start=new Date('2021-12-09T00:00:00.000Z').valueOf();
sats=[{"CENTER_NAME":"EARTH","RA_OF_ASC_NODE":"33.1250","COUNTRY_CODE":"US","BSTAR":"-0.00001274500000","MEAN_MOTION_DDOT":"0.0000000000000","EPOCH":"2021-12-08T20:19:50.018880","PERIAPSIS":"546.278","TLE_LINE2":"2 45065  53.0551  33.1250 0001382  66.5734 293.5400 15.06392912102846","MEAN_MOTION_DOT":"-0.00000471","OBJECT_TYPE":"PAYLOAD","OBJECT_ID":"2020-006X","SEMIMAJOR_AXIS":"6925.370","REV_AT_EPOCH":"10284","SITE":"AFETR","NORAD_CAT_ID":"45065","TIME_SYSTEM":"UTC","RCS_SIZE":"LARGE","CLASSIFICATION_TYPE":"U","DECAY_DATE":null,"PERIOD":"95.593","ECCENTRICITY":"0.00013820","TLE_LINE1":"1 45065U 20006X   21342.84710670 -.00000471  00000-0 -12745-4 0  9990","EPHEMERIS_TYPE":"0","MEAN_ELEMENT_THEORY":"SGP4","OBJECT_NAME":"STARLINK-1139","APOAPSIS":"548.192","GP_ID":"191363040","ELEMENT_SET_NO":"999","LAUNCH_DATE":"2020-01-29","FILE":"3235972","REF_FRAME":"TEME","INCLINATION":"53.0551","MEAN_MOTION":"15.06392912","ARG_OF_PERICENTER":"66.5734","MEAN_ANOMALY":"293.5400"},{"CENTER_NAME":"EARTH","TLE_LINE2":"2 45066  53.0563  35.0229 0001602  71.8115 288.3048 15.06404050102773","EPOCH":"2021-12-08T10:09:26.021376","PERIAPSIS":"546.092","BSTAR":"0.00013025000000","MEAN_MOTION_DDOT":"0.0000000000000","RA_OF_ASC_NODE":"35.0229","COUNTRY_CODE":"US","SEMIMAJOR_AXIS":"6925.336","OBJECT_ID":"2020-006Y","OBJECT_TYPE":"PAYLOAD","MEAN_MOTION_DOT":"0.00001659","RCS_SIZE":"LARGE","TIME_SYSTEM":"UTC","NORAD_CAT_ID":"45066","SITE":"AFETR","REV_AT_EPOCH":"10277","ECCENTRICITY":"0.00016020","DECAY_DATE":null,"PERIOD":"95.592","CLASSIFICATION_TYPE":"U","MEAN_ELEMENT_THEORY":"SGP4","TLE_LINE1":"1 45066U 20006Y   21342.42321784  .00001659  00000-0  13025-3 0  9997","EPHEMERIS_TYPE":"0","GP_ID":"191333050","APOAPSIS":"548.311","OBJECT_NAME":"STARLINK-1145","ARG_OF_PERICENTER":"71.8115","MEAN_ANOMALY":"288.3048","MEAN_MOTION":"15.06404050","FILE":"3235746","INCLINATION":"53.0563","REF_FRAME":"TEME","ELEMENT_SET_NO":"999","LAUNCH_DATE":"2020-01-29"},{"MEAN_ANOMALY":"295.9873","ARG_OF_PERICENTER":"64.1241","MEAN_MOTION":"15.06395515","REF_FRAME":"TEME","FILE":"3235972","INCLINATION":"53.0556","LAUNCH_DATE":"2020-01-29","ELEMENT_SET_NO":"999","GP_ID":"191361538","APOAPSIS":"548.070","OBJECT_NAME":"STARLINK-1150","MEAN_ELEMENT_THEORY":"SGP4","TLE_LINE1":"1 45067U 20006Z   21342.83605142 -.00000476  00000-0 -13087-4 0  9993","EPHEMERIS_TYPE":"0","ECCENTRICITY":"0.00012170","DECAY_DATE":null,"PERIOD":"95.592","CLASSIFICATION_TYPE":"U","RCS_SIZE":"LARGE","NORAD_CAT_ID":"45067","TIME_SYSTEM":"UTC","SITE":"AFETR","REV_AT_EPOCH":"10284","SEMIMAJOR_AXIS":"6925.362","OBJECT_ID":"2020-006Z","OBJECT_TYPE":"PAYLOAD","MEAN_MOTION_DOT":"-0.00000476","TLE_LINE2":"2 45067  53.0556  33.1563 0001217  64.1241 295.9873 15.06395515102846","PERIAPSIS":"546.384","EPOCH":"2021-12-08T20:03:54.842688","MEAN_MOTION_DDOT":"0.0000000000000","BSTAR":"-0.00001308700000","COUNTRY_CODE":"US","RA_OF_ASC_NODE":"33.1563","CENTER_NAME":"EARTH"},{"OBJECT_TYPE":"PAYLOAD","MEAN_MOTION_DOT":"0.00000371","OBJECT_ID":"2020-006AA","SEMIMAJOR_AXIS":"6925.362","REV_AT_EPOCH":"10280","SITE":"AFETR","NORAD_CAT_ID":"45068","TIME_SYSTEM":"UTC","RCS_SIZE":"LARGE","CENTER_NAME":"EARTH","RA_OF_ASC_NODE":"34.1156","COUNTRY_CODE":"US","BSTAR":"0.00004380100000","MEAN_MOTION_DDOT":"0.0000000000000","EPOCH":"2021-12-08T15:01:22.636416","PERIAPSIS":"546.369","TLE_LINE2":"2 45068  53.0559  34.1156 0001239  82.0788 278.0342 15.06395481102809","OBJECT_NAME":"STARLINK-1161","APOAPSIS":"548.085","GP_ID":"191361788","ELEMENT_SET_NO":"999","LAUNCH_DATE":"2020-01-29","REF_FRAME":"TEME","FILE":"3235972","INCLINATION":"53.0559","MEAN_MOTION":"15.06395481","MEAN_ANOMALY":"278.0342","ARG_OF_PERICENTER":"82.0788","CLASSIFICATION_TYPE":"U","DECAY_DATE":null,"PERIOD":"95.592","ECCENTRICITY":"0.00012390","TLE_LINE1":"1 45068U 20006AA  21342.62595644  .00000371  00000-0  43801-4 0  9995","EPHEMERIS_TYPE":"0","MEAN_ELEMENT_THEORY":"SGP4"},{"CENTER_NAME":"EARTH","PERIAPSIS":"546.366","EPOCH":"2021-12-08T20:51:40.608000","TLE_LINE2":"2 45071  53.0562  33.0178 0001240  68.2326 291.8795 15.06396354102844","COUNTRY_CODE":"US","RA_OF_ASC_NODE":"33.0178","MEAN_MOTION_DDOT":"0.0000000000000","BSTAR":"0.00008986800000","OBJECT_ID":"2020-006AD","SEMIMAJOR_AXIS":"6925.360","OBJECT_TYPE":"PAYLOAD","MEAN_MOTION_DOT":"0.00001057","NORAD_CAT_ID":"45071","TIME_SYSTEM":"UTC","RCS_SIZE":"LARGE","REV_AT_EPOCH":"10284","SITE":"AFETR","ECCENTRICITY":"0.00012400","CLASSIFICATION_TYPE":"U","PERIOD":"95.592","DECAY_DATE":null,"TLE_LINE1":"1 45071U 20006AD  21342.86922000  .00001057  00000-0  89868-4 0  9990","EPHEMERIS_TYPE":"0","MEAN_ELEMENT_THEORY":"SGP4","GP_ID":"191362540","OBJECT_NAME":"STARLINK-1167","APOAPSIS":"548.083","MEAN_MOTION":"15.06396354","MEAN_ANOMALY":"291.8795","ARG_OF_PERICENTER":"68.2326","LAUNCH_DATE":"2020-01-29","ELEMENT_SET_NO":"999","FILE":"3235972","INCLINATION":"53.0562","REF_FRAME":"TEME"},{"TLE_LINE2":"2 45072  53.0549  32.9972 0001536  66.0469 294.0681 15.06386920102849","PERIAPSIS":"546.190","EPOCH":"2021-12-08T20:56:59.316000","MEAN_MOTION_DDOT":"0.0000000000000","BSTAR":"0.00002770500000","COUNTRY_CODE":"US","RA_OF_ASC_NODE":"32.9972","CENTER_NAME":"EARTH","RCS_SIZE":"LARGE","NORAD_CAT_ID":"45072","TIME_SYSTEM":"UTC","SITE":"AFETR","REV_AT_EPOCH":"10284","SEMIMAJOR_AXIS":"6925.389","OBJECT_ID":"2020-006AE","MEAN_MOTION_DOT":"0.00000131","OBJECT_TYPE":"PAYLOAD","MEAN_ELEMENT_THEORY":"SGP4","EPHEMERIS_TYPE":"0","TLE_LINE1":"1 45072U 20006AE  21342.87290875  .00000131  00000-0  27705-4 0  9994","ECCENTRICITY":"0.00015360","PERIOD":"95.593","DECAY_DATE":null,"CLASSIFICATION_TYPE":"U","MEAN_ANOMALY":"294.0681","ARG_OF_PERICENTER":"66.0469","MEAN_MOTION":"15.06386920","INCLINATION":"53.0549","FILE":"3235972","REF_FRAME":"TEME","LAUNCH_DATE":"2020-01-29","ELEMENT_SET_NO":"999","GP_ID":"191363291","APOAPSIS":"548.317","OBJECT_NAME":"STARLINK-1168"},{"MEAN_ANOMALY":"285.8625","ARG_OF_PERICENTER":"74.2522","MEAN_MOTION":"15.06398632","REF_FRAME":"TEME","FILE":"3235746","INCLINATION":"53.0555","LAUNCH_DATE":"2020-01-29","ELEMENT_SET_NO":"999","GP_ID":"191333800","APOAPSIS":"548.209","OBJECT_NAME":"STARLINK-1170","MEAN_ELEMENT_THEORY":"SGP4","EPHEMERIS_TYPE":"0","TLE_LINE1":"1 45073U 20006AF  21342.36792968  .00000094  00000-0  25186-4 0  9998","ECCENTRICITY":"0.00014310","PERIOD":"95.592","DECAY_DATE":null,"CLASSIFICATION_TYPE":"U","RCS_SIZE":"LARGE","TIME_SYSTEM":"UTC","NORAD_CAT_ID":"45073","SITE":"AFETR","REV_AT_EPOCH":"10276","SEMIMAJOR_AXIS":"6925.353","OBJECT_ID":"2020-006AF","MEAN_MOTION_DOT":"0.00000094","OBJECT_TYPE":"PAYLOAD","TLE_LINE2":"2 45073  53.0555  35.2568 0001431  74.2522 285.8625 15.06398632102769","PERIAPSIS":"546.227","EPOCH":"2021-12-08T08:49:49.124352","MEAN_MOTION_DDOT":"0.0000000000000","BSTAR":"0.00002518600000","COUNTRY_CODE":"US","RA_OF_ASC_NODE":"35.2568","CENTER_NAME":"EARTH"},{"MEAN_MOTION_DOT":"0.00002665","OBJECT_TYPE":"PAYLOAD","OBJECT_ID":"2020-006AG","SEMIMAJOR_AXIS":"6925.329","REV_AT_EPOCH":"10284","SITE":"AFETR","TIME_SYSTEM":"UTC","NORAD_CAT_ID":"45074","RCS_SIZE":"LARGE","CENTER_NAME":"EARTH","RA_OF_ASC_NODE":"32.9577","COUNTRY_CODE":"US","BSTAR":"0.00019768000000","MEAN_MOTION_DDOT":"0.0000000000000","EPOCH":"2021-12-08T21:12:53.972064","PERIAPSIS":"546.083","TLE_LINE2":"2 45074  53.0558  32.9577 0001605  64.0955 296.0199 15.06406256102848","OBJECT_NAME":"STARLINK-1172","APOAPSIS":"548.306","GP_ID":"191362289","ELEMENT_SET_NO":"999","LAUNCH_DATE":"2020-01-29","INCLINATION":"53.0558","FILE":"3235972","REF_FRAME":"TEME","MEAN_MOTION":"15.06406256","MEAN_ANOMALY":"296.0199","ARG_OF_PERICENTER":"64.0955","CLASSIFICATION_TYPE":"U","PERIOD":"95.592","DECAY_DATE":null,"ECCENTRICITY":"0.00016050","EPHEMERIS_TYPE":"0","TLE_LINE1":"1 45074U 20006AG  21342.88395801  .00002665  00000-0  19768-3 0  9995","MEAN_ELEMENT_THEORY":"SGP4"},{"CENTER_NAME":"EARTH","BSTAR":"-0.00001481000000","MEAN_MOTION_DDOT":"0.0000000000000","RA_OF_ASC_NODE":"33.1078","COUNTRY_CODE":"US","TLE_LINE2":"2 45075  53.0549  33.1078 0001610  70.2099 289.9064 15.06398224102849","EPOCH":"2021-12-08T20:25:08.251680","PERIAPSIS":"546.104","MEAN_MOTION_DOT":"-0.00000502","OBJECT_TYPE":"PAYLOAD","SEMIMAJOR_AXIS":"6925.354","OBJECT_ID":"2020-006AH","SITE":"AFETR","REV_AT_EPOCH":"10284","RCS_SIZE":"LARGE","NORAD_CAT_ID":"45075","TIME_SYSTEM":"UTC","PERIOD":"95.592","DECAY_DATE":null,"CLASSIFICATION_TYPE":"U","ECCENTRICITY":"0.00016100","MEAN_ELEMENT_THEORY":"SGP4","TLE_LINE1":"1 45075U 20006AH  21342.85078995 -.00000502  00000-0 -14810-4 0  9999","EPHEMERIS_TYPE":"0","APOAPSIS":"548.334","OBJECT_NAME":"STARLINK-1174","GP_ID":"191363041","FILE":"3235972","INCLINATION":"53.0549","REF_FRAME":"TEME","ELEMENT_SET_NO":"999","LAUNCH_DATE":"2020-01-29","MEAN_ANOMALY":"289.9064","ARG_OF_PERICENTER":"70.2099","MEAN_MOTION":"15.06398224"},{"CENTER_NAME":"EARTH","EPOCH":"2021-12-08T20:35:45.689280","PERIAPSIS":"546.138","TLE_LINE2":"2 45076  53.0558  33.0623 0001576  65.3814 294.7339 15.06394872102840","RA_OF_ASC_NODE":"33.0623","COUNTRY_CODE":"US","BSTAR":"-0.00001373000000","MEAN_MOTION_DDOT":"0.0000000000000","OBJECT_ID":"2020-006AJ","SEMIMAJOR_AXIS":"6925.364","MEAN_MOTION_DOT":"-0.00000486","OBJECT_TYPE":"PAYLOAD","NORAD_CAT_ID":"45076","TIME_SYSTEM":"UTC","RCS_SIZE":"LARGE","REV_AT_EPOCH":"10284","SITE":"AFETR","ECCENTRICITY":"0.00015760","CLASSIFICATION_TYPE":"U","PERIOD":"95.592","DECAY_DATE":null,"TLE_LINE1":"1 45076U 20006AJ  21342.85816770 -.00000486  00000-0 -13730-4 0  9992","EPHEMERIS_TYPE":"0","MEAN_ELEMENT_THEORY":"SGP4","GP_ID":"191362791","OBJECT_NAME":"STARLINK-1180","APOAPSIS":"548.321","MEAN_MOTION":"15.06394872","ARG_OF_PERICENTER":"65.3814","MEAN_ANOMALY":"294.7339","ELEMENT_SET_NO":"999","LAUNCH_DATE":"2020-01-29","FILE":"3235972","REF_FRAME":"TEME","INCLINATION":"53.0558"}];
